{
  "type": "FeatureCollection",
  "features": [
    {
      "type": "Feature",
      "properties": {
        "norad_id": 36283,
        "name": "FENGYUN 1C DEB",
        "group": "fengyun-1c-debris",
        "lat": 46.68498531232479,
        "lon": 139.69409789882314,
        "alt_km": 532.8758200586744,
        "timestamp": "2025-12-10T20:49:52.841847+00:00",
        "meta_object_name": "FENGYUN 1C DEB",
        "meta_object_id": "1999-025DXL",
        "meta_epoch": "2025-12-09T02:47:32.160480",
        "meta_mean_motion": 15.05915061,
        "meta_eccentricity": 0.00683492,
        "meta_inclination": 99.4217,
        "meta_ra_of_asc_node": 307.4131,
        "meta_arg_of_pericenter": 61.5319,
        "meta_mean_anomaly": 299.2764,
        "meta_ephemeris_type": 0,
        "meta_classification_type": "U",
        "meta_norad_cat_id": 36283,
        "meta_element_set_no": 999,
        "meta_rev_at_epoch": 66611,
        "meta_bstar": 0.0023687932,
        "meta_mean_motion_dot": 0.00036387,
        "meta_mean_motion_ddot": 0,
        "tle_line1": "1 36283U 99025DXL 25343.11634445  .00036387  00000+0  23688-2 0  9997",
        "tle_line2": "2 36283  99.4217 307.4131 0068349  61.5319 299.2764 15.05915061666112"
      },
      "geometry": {
        "type": "Point",
        "coordinates": [
          139.69409789882314,
          46.68498531232479
        ]
      }
    },
    {
      "type": "Feature",
      "properties": {
        "norad_id": 36644,
        "name": "FENGYUN 1C DEB",
        "group": "fengyun-1c-debris",
        "lat": 35.56186726875151,
        "lon": 117.64885139557418,
        "alt_km": 1216.2042160544097,
        "timestamp": "2025-12-10T20:49:52.841857+00:00",
        "meta_object_name": "FENGYUN 1C DEB",
        "meta_object_id": "1999-025DXN",
        "meta_epoch": "2025-12-06T15:56:19.275936",
        "meta_mean_motion": 13.59167664,
        "meta_eccentricity": 0.02857814,
        "meta_inclination": 98.4234,
        "meta_ra_of_asc_node": 120.1104,
        "meta_arg_of_pericenter": 196.1478,
        "meta_mean_anomaly": 163.0413,
        "meta_ephemeris_type": 0,
        "meta_classification_type": "U",
        "meta_norad_cat_id": 36644,
        "meta_element_set_no": 999,
        "meta_rev_at_epoch": 61485,
        "meta_bstar": 0.0026178612,
        "meta_mean_motion_dot": 2.485e-05,
        "meta_mean_motion_ddot": 0,
        "tle_line1": "1 36644U 99025DXN 25340.66411199  .00002485  00000+0  26179-2 0  9994",
        "tle_line2": "2 36644  98.4234 120.1104 0285781 196.1478 163.0413 13.59167664614851"
      },
      "geometry": {
        "type": "Point",
        "coordinates": [
          117.64885139557418,
          35.56186726875151
        ]
      }
    },
    {
      "type": "Feature",
      "properties": {
        "norad_id": 36647,
        "name": "FENGYUN 1C DEB",
        "group": "fengyun-1c-debris",
        "lat": -0.8798477456601302,
        "lon": 126.28611376755426,
        "alt_km": 830.0458577424824,
        "timestamp": "2025-12-10T20:49:52.841867+00:00",
        "meta_object_name": "FENGYUN 1C DEB",
        "meta_object_id": "1999-025DXR",
        "meta_epoch": "2025-12-09T15:26:26.721312",
        "meta_mean_motion": 13.8878437,
        "meta_eccentricity": 0.0239235,
        "meta_inclination": 96.1218,
        "meta_ra_of_asc_node": 125.385,
        "meta_arg_of_pericenter": 308.9455,
        "meta_mean_anomaly": 49.0604,
        "meta_ephemeris_type": 0,
        "meta_classification_type": "U",
        "meta_norad_cat_id": 36647,
        "meta_element_set_no": 999,
        "meta_rev_at_epoch": 30369,
        "meta_bstar": 0.0035802,
        "meta_mean_motion_dot": 5.41e-05,
        "meta_mean_motion_ddot": 0,
        "tle_line1": "1 36647U 99025DXR 25343.64336483  .00005410  00000+0  35802-2 0  9994",
        "tle_line2": "2 36647  96.1218 125.3850 0239235 308.9455  49.0604 13.88784370303690"
      },
      "geometry": {
        "type": "Point",
        "coordinates": [
          126.28611376755426,
          -0.8798477456601302
        ]
      }
    },
    {
      "type": "Feature",
      "properties": {
        "norad_id": 36652,
        "name": "FENGYUN 1C DEB",
        "group": "fengyun-1c-debris",
        "lat": -59.60282956751585,
        "lon": 82.57728855083474,
        "alt_km": 804.4516585416823,
        "timestamp": "2025-12-10T20:49:52.841877+00:00",
        "meta_object_name": "FENGYUN 1C DEB",
        "meta_object_id": "1999-025DXW",
        "meta_epoch": "2025-12-09T16:25:20.403552",
        "meta_mean_motion": 14.22780284,
        "meta_eccentricity": 0.00506653,
        "meta_inclination": 98.941,
        "meta_ra_of_asc_node": 65.8094,
        "meta_arg_of_pericenter": 2.278,
        "meta_mean_anomaly": 357.8619,
        "meta_ephemeris_type": 0,
        "meta_classification_type": "U",
        "meta_norad_cat_id": 36652,
        "meta_element_set_no": 999,
        "meta_rev_at_epoch": 64281,
        "meta_bstar": 0.0025536763,
        "meta_mean_motion_dot": 5.761e-05,
        "meta_mean_motion_ddot": 0,
        "tle_line1": "1 36652U 99025DXW 25343.68426393  .00005761  00000+0  25537-2 0  9997",
        "tle_line2": "2 36652  98.9410  65.8094 0050665   2.2780 357.8619 14.22780284642816"
      },
      "geometry": {
        "type": "Point",
        "coordinates": [
          82.57728855083474,
          -59.60282956751585
        ]
      }
    },
    {
      "type": "Feature",
      "properties": {
        "norad_id": 36657,
        "name": "FENGYUN 1C DEB",
        "group": "fengyun-1c-debris",
        "lat": -14.75184635619352,
        "lon": -46.99285479719245,
        "alt_km": 719.2992524047395,
        "timestamp": "2025-12-10T20:49:52.841888+00:00",
        "meta_object_name": "FENGYUN 1C DEB",
        "meta_object_id": "1999-025DYB",
        "meta_epoch": "2025-12-09T21:00:52.013664",
        "meta_mean_motion": 14.65488213,
        "meta_eccentricity": 0.01058591,
        "meta_inclination": 99.4125,
        "meta_ra_of_asc_node": 134.3752,
        "meta_arg_of_pericenter": 75.6977,
        "meta_mean_anomaly": 285.5949,
        "meta_ephemeris_type": 0,
        "meta_classification_type": "U",
        "meta_norad_cat_id": 36657,
        "meta_element_set_no": 999,
        "meta_rev_at_epoch": 66214,
        "meta_bstar": 0.00094501863,
        "meta_mean_motion_dot": 5.498e-05,
        "meta_mean_motion_ddot": 0,
        "tle_line1": "1 36657U 99025DYB 25343.87560201  .00005498  00000+0  94502-3 0  9996",
        "tle_line2": "2 36657  99.4125 134.3752 0105859  75.6977 285.5949 14.65488213662146"
      },
      "geometry": {
        "type": "Point",
        "coordinates": [
          -46.99285479719245,
          -14.75184635619352
        ]
      }
    },
    {
      "type": "Feature",
      "properties": {
        "norad_id": 36659,
        "name": "FENGYUN 1C DEB",
        "group": "fengyun-1c-debris",
        "lat": -10.049125480779495,
        "lon": -9.985559389096608,
        "alt_km": 940.2910609342216,
        "timestamp": "2025-12-10T20:49:52.841898+00:00",
        "meta_object_name": "FENGYUN 1C DEB",
        "meta_object_id": "1999-025DYD",
        "meta_epoch": "2025-12-08T06:34:16.718304",
        "meta_mean_motion": 13.87363788,
        "meta_eccentricity": 0.01358311,
        "meta_inclination": 99.8536,
        "meta_ra_of_asc_node": 345.5157,
        "meta_arg_of_pericenter": 86.5848,
        "meta_mean_anomaly": 275.0833,
        "meta_ephemeris_type": 0,
        "meta_classification_type": "U",
        "meta_norad_cat_id": 36659,
        "meta_element_set_no": 999,
        "meta_rev_at_epoch": 60363,
        "meta_bstar": 0.0010441294,
        "meta_mean_motion_dot": 1.275e-05,
        "meta_mean_motion_ddot": 0,
        "tle_line1": "1 36659U 99025DYD 25342.27380461  .00001275  00000+0  10441-2 0  9997",
        "tle_line2": "2 36659  99.8536 345.5157 0135831  86.5848 275.0833 13.87363788603631"
      },
      "geometry": {
        "type": "Point",
        "coordinates": [
          -9.985559389096608,
          -10.049125480779495
        ]
      }
    },
    {
      "type": "Feature",
      "properties": {
        "norad_id": 36664,
        "name": "FENGYUN 1C DEB",
        "group": "fengyun-1c-debris",
        "lat": 69.77389614519788,
        "lon": -14.733712593961407,
        "alt_km": 720.350026293534,
        "timestamp": "2025-12-10T20:49:52.841907+00:00",
        "meta_object_name": "FENGYUN 1C DEB",
        "meta_object_id": "1999-025DYJ",
        "meta_epoch": "2025-12-10T08:38:38.230944",
        "meta_mean_motion": 14.17954932,
        "meta_eccentricity": 0.01735524,
        "meta_inclination": 98.6046,
        "meta_ra_of_asc_node": 9.0387,
        "meta_arg_of_pericenter": 106.5288,
        "meta_mean_anomaly": 255.5032,
        "meta_ephemeris_type": 0,
        "meta_classification_type": "U",
        "meta_norad_cat_id": 36664,
        "meta_element_set_no": 999,
        "meta_rev_at_epoch": 63717,
        "meta_bstar": 0.00011870964,
        "meta_mean_motion_dot": 2.4e-06,
        "meta_mean_motion_ddot": 0,
        "tle_line1": "1 36664U 99025DYJ 25344.36016471  .00000240  00000+0  11871-3 0  9992",
        "tle_line2": "2 36664  98.6046   9.0387 0173552 106.5288 255.5032 14.17954932637171"
      },
      "geometry": {
        "type": "Point",
        "coordinates": [
          -14.733712593961407,
          69.77389614519788
        ]
      }
    }
  ]
}